start=new Date('2022-05-11T00:00:00.000Z').valueOf();
sats=[{"INCLINATION":"53.0567","REV_AT_EPOCH":"8606","EPHEMERIS_TYPE":"0","OBJECT_NAME":"STARLINK-1783","LAUNCH_DATE":"2020-10-18","RA_OF_ASC_NODE":"56.7154","ECCENTRICITY":"0.00025650","BSTAR":"-0.00039679000000","ARG_OF_PERICENTER":"61.5663","MEAN_MOTION":"15.06426338","EPOCH":"2022-05-10T17:57:19.902528","FILE":"3439673","GP_ID":"203226460","REF_FRAME":"TEME","MEAN_MOTION_DOT":"-0.00006192","CLASSIFICATION_TYPE":"U","OBJECT_ID":"2020-073S","OBJECT_TYPE":"PAYLOAD","MEAN_ELEMENT_THEORY":"SGP4","CENTER_NAME":"EARTH","TLE_LINE1":"1 46686U 20073S   22130.74814702 -.00006192  00000-0 -39679-3 0  9990","SEMIMAJOR_AXIS":"6925.268","PERIOD":"95.590","NORAD_CAT_ID":"46686","DECAY_DATE":null,"MEAN_ANOMALY":"298.5584","APOAPSIS":"548.909","ELEMENT_SET_NO":"999","PERIAPSIS":"545.357","MEAN_MOTION_DDOT":"0.0000000000000","RCS_SIZE":"LARGE","TLE_LINE2":"2 46686  53.0567  56.7154 0002565  61.5663 298.5584 15.06426338 86060","TIME_SYSTEM":"UTC","COUNTRY_CODE":"US","SITE":"AFETR"},{"INCLINATION":"53.0566","EPHEMERIS_TYPE":"0","REV_AT_EPOCH":"8657","RA_OF_ASC_NODE":"21.1770","LAUNCH_DATE":"2020-10-18","OBJECT_NAME":"STARLINK-1784","ECCENTRICITY":"0.00021560","BSTAR":"0.00012367000000","ARG_OF_PERICENTER":"44.6680","FILE":"3439673","EPOCH":"2022-05-10T20:49:11.168832","MEAN_MOTION":"15.06391052","REF_FRAME":"TEME","GP_ID":"203227212","MEAN_MOTION_DOT":"0.00001560","OBJECT_TYPE":"PAYLOAD","MEAN_ELEMENT_THEORY":"SGP4","OBJECT_ID":"2020-073T","CLASSIFICATION_TYPE":"U","CENTER_NAME":"EARTH","NORAD_CAT_ID":"46687","PERIOD":"95.593","SEMIMAJOR_AXIS":"6925.376","TLE_LINE1":"1 46687U 20073T   22130.86749038  .00001560  00000-0  12367-3 0  9990","DECAY_DATE":null,"MEAN_ANOMALY":"315.4482","APOAPSIS":"548.734","ELEMENT_SET_NO":"999","MEAN_MOTION_DDOT":"0.0000000000000","PERIAPSIS":"545.748","RCS_SIZE":"LARGE","TLE_LINE2":"2 46687  53.0566  21.1770 0002156  44.6680 315.4482 15.06391052 86573","TIME_SYSTEM":"UTC","SITE":"AFETR","COUNTRY_CODE":"US"},{"EPHEMERIS_TYPE":"0","REV_AT_EPOCH":"8732","RA_OF_ASC_NODE":"56.3693","LAUNCH_DATE":"2020-10-18","OBJECT_NAME":"STARLINK-1788","INCLINATION":"53.0540","BSTAR":"-0.00002276500000","ECCENTRICITY":"0.00018590","FILE":"3439673","MEAN_MOTION":"15.06399661","EPOCH":"2022-05-10T19:48:48.177504","REF_FRAME":"TEME","GP_ID":"203227961","ARG_OF_PERICENTER":"62.8174","CENTER_NAME":"EARTH","MEAN_MOTION_DOT":"-0.00000621","OBJECT_TYPE":"PAYLOAD","OBJECT_ID":"2020-073V","MEAN_ELEMENT_THEORY":"SGP4","CLASSIFICATION_TYPE":"U","PERIOD":"95.592","NORAD_CAT_ID":"46689","SEMIMAJOR_AXIS":"6925.350","TLE_LINE1":"1 46689U 20073V   22130.82555761 -.00000621  00000-0 -22765-4 0  9999","DECAY_DATE":null,"APOAPSIS":"548.502","ELEMENT_SET_NO":"999","MEAN_ANOMALY":"297.3005","RCS_SIZE":"LARGE","PERIAPSIS":"545.927","MEAN_MOTION_DDOT":"0.0000000000000","SITE":"AFETR","COUNTRY_CODE":"US","TIME_SYSTEM":"UTC","TLE_LINE2":"2 46689  53.0540  56.3693 0001859  62.8174 297.3005 15.06399661 87327"},{"TIME_SYSTEM":"UTC","TLE_LINE2":"2 46690  53.0561  31.0565 0001339  70.4333 289.6801 15.06392146 86435","COUNTRY_CODE":"US","SITE":"AFETR","MEAN_MOTION_DDOT":"0.0000000000000","PERIAPSIS":"546.310","RCS_SIZE":"LARGE","MEAN_ANOMALY":"289.6801","APOAPSIS":"548.165","ELEMENT_SET_NO":"999","TLE_LINE1":"1 46690U 20073W   22130.89237265  .00000296  00000-0  38770-4 0  9993","SEMIMAJOR_AXIS":"6925.373","PERIOD":"95.593","NORAD_CAT_ID":"46690","DECAY_DATE":null,"MEAN_MOTION_DOT":"0.00000296","CLASSIFICATION_TYPE":"U","OBJECT_TYPE":"PAYLOAD","MEAN_ELEMENT_THEORY":"SGP4","OBJECT_ID":"2020-073W","CENTER_NAME":"EARTH","ARG_OF_PERICENTER":"70.4333","MEAN_MOTION":"15.06392146","EPOCH":"2022-05-10T21:25:00.996960","FILE":"3439673","GP_ID":"203226710","REF_FRAME":"TEME","ECCENTRICITY":"0.00013390","BSTAR":"0.00003877000000","INCLINATION":"53.0561","REV_AT_EPOCH":"8643","EPHEMERIS_TYPE":"0","LAUNCH_DATE":"2020-10-18","OBJECT_NAME":"STARLINK-1789","RA_OF_ASC_NODE":"31.0565"},{"ELEMENT_SET_NO":"999","APOAPSIS":"548.509","MEAN_ANOMALY":"305.8790","TLE_LINE1":"1 46691U 20073X   22130.89143550 -.00008941  00000-0 -58154-3 0  9991","SEMIMAJOR_AXIS":"6925.254","PERIOD":"95.590","NORAD_CAT_ID":"46691","DECAY_DATE":null,"COUNTRY_CODE":"US","SITE":"AFETR","TLE_LINE2":"2 46691  53.0558  41.0757 0002008  54.2385 305.8790 15.06430993 86292","TIME_SYSTEM":"UTC","RCS_SIZE":"LARGE","MEAN_MOTION_DDOT":"0.0000000000000","PERIAPSIS":"545.728","BSTAR":"-0.00058154000000","ECCENTRICITY":"0.00020080","REV_AT_EPOCH":"8629","EPHEMERIS_TYPE":"0","LAUNCH_DATE":"2020-10-18","RA_OF_ASC_NODE":"41.0757","OBJECT_NAME":"STARLINK-1790","INCLINATION":"53.0558","CENTER_NAME":"EARTH","MEAN_MOTION_DOT":"-0.00008941","CLASSIFICATION_TYPE":"U","OBJECT_TYPE":"PAYLOAD","MEAN_ELEMENT_THEORY":"SGP4","OBJECT_ID":"2020-073X","EPOCH":"2022-05-10T21:23:40.027200","MEAN_MOTION":"15.06430993","FILE":"3439673","GP_ID":"203226960","REF_FRAME":"TEME","ARG_OF_PERICENTER":"54.2385"},{"BSTAR":"0.00006894900000","ECCENTRICITY":"0.00017450","RA_OF_ASC_NODE":"59.0999","LAUNCH_DATE":"2020-10-18","OBJECT_NAME":"STARLINK-1791","EPHEMERIS_TYPE":"0","REV_AT_EPOCH":"8598","INCLINATION":"53.0562","CENTER_NAME":"EARTH","MEAN_ELEMENT_THEORY":"SGP4","OBJECT_TYPE":"PAYLOAD","OBJECT_ID":"2020-073Y","CLASSIFICATION_TYPE":"U","MEAN_MOTION_DOT":"0.00000746","REF_FRAME":"TEME","GP_ID":"203190531","FILE":"3439131","MEAN_MOTION":"15.06400060","EPOCH":"2022-05-10T05:07:42.416832","ARG_OF_PERICENTER":"71.1425","APOAPSIS":"548.422","ELEMENT_SET_NO":"999","MEAN_ANOMALY":"288.9753","DECAY_DATE":null,"PERIOD":"95.592","NORAD_CAT_ID":"46692","SEMIMAJOR_AXIS":"6925.348","TLE_LINE1":"1 46692U 20073Y   22130.21368538  .00000746  00000-0  68949-4 0  9990","SITE":"AFETR","COUNTRY_CODE":"US","TLE_LINE2":"2 46692  53.0562  59.0999 0001745  71.1425 288.9753 15.06400060 85982","TIME_SYSTEM":"UTC","RCS_SIZE":"LARGE","MEAN_MOTION_DDOT":"0.0000000000000","PERIAPSIS":"546.005"},{"INCLINATION":"53.0559","REV_AT_EPOCH":"8629","EPHEMERIS_TYPE":"0","LAUNCH_DATE":"2020-10-18","RA_OF_ASC_NODE":"41.0561","OBJECT_NAME":"STARLINK-1792","ECCENTRICITY":"0.00017480","BSTAR":"0.00005505500000","ARG_OF_PERICENTER":"50.9841","MEAN_MOTION":"15.06396656","EPOCH":"2022-05-10T21:28:59.078208","FILE":"3439673","GP_ID":"203227462","REF_FRAME":"TEME","MEAN_MOTION_DOT":"0.00000538","CLASSIFICATION_TYPE":"U","OBJECT_TYPE":"PAYLOAD","MEAN_ELEMENT_THEORY":"SGP4","OBJECT_ID":"2020-073Z","CENTER_NAME":"EARTH","SEMIMAJOR_AXIS":"6925.359","TLE_LINE1":"1 46693U 20073Z   22130.89512822  .00000538  00000-0  55055-4 0  9995","NORAD_CAT_ID":"46693","PERIOD":"95.592","DECAY_DATE":null,"MEAN_ANOMALY":"309.1303","APOAPSIS":"548.434","ELEMENT_SET_NO":"999","MEAN_MOTION_DDOT":"0.0000000000000","PERIAPSIS":"546.013","RCS_SIZE":"LARGE","TLE_LINE2":"2 46693  53.0559  41.0561 0001748  50.9841 309.1303 15.06396656 86292","TIME_SYSTEM":"UTC","COUNTRY_CODE":"US","SITE":"AFETR"},{"REF_FRAME":"TEME","GP_ID":"203226211","FILE":"3439673","EPOCH":"2022-05-10T22:03:29.507328","MEAN_MOTION":"15.06392835","ARG_OF_PERICENTER":"119.5208","CENTER_NAME":"EARTH","OBJECT_ID":"2020-073AA","OBJECT_TYPE":"PAYLOAD","MEAN_ELEMENT_THEORY":"SGP4","CLASSIFICATION_TYPE":"U","MEAN_MOTION_DOT":"0.00000065","RA_OF_ASC_NODE":"20.9560","LAUNCH_DATE":"2020-10-18","OBJECT_NAME":"STARLINK-1793","EPHEMERIS_TYPE":"0","REV_AT_EPOCH":"8658","INCLINATION":"53.0566","BSTAR":"0.00002329600000","ECCENTRICITY":"0.00015080","RCS_SIZE":"LARGE","PERIAPSIS":"546.191","MEAN_MOTION_DDOT":"0.0000000000000","SITE":"AFETR","COUNTRY_CODE":"US","TLE_LINE2":"2 46694  53.0566  20.9560 0001508 119.5208 240.5931 15.06392835 86581","TIME_SYSTEM":"UTC","DECAY_DATE":null,"PERIOD":"95.593","NORAD_CAT_ID":"46694","TLE_LINE1":"1 46694U 20073AA  22130.91909152  .00000065  00000-0  23296-4 0  9992","SEMIMAJOR_AXIS":"6925.371","APOAPSIS":"548.280","ELEMENT_SET_NO":"999","MEAN_ANOMALY":"240.5931"},{"REF_FRAME":"TEME","GP_ID":"203226461","FILE":"3439673","MEAN_MOTION":"15.06390629","EPOCH":"2022-05-10T20:54:29.770560","ARG_OF_PERICENTER":"61.7038","CENTER_NAME":"EARTH","MEAN_ELEMENT_THEORY":"SGP4","OBJECT_TYPE":"PAYLOAD","OBJECT_ID":"2020-073AC","CLASSIFICATION_TYPE":"U","MEAN_MOTION_DOT":"0.00001561","OBJECT_NAME":"STARLINK-1795","LAUNCH_DATE":"2020-10-18","RA_OF_ASC_NODE":"21.1612","EPHEMERIS_TYPE":"0","REV_AT_EPOCH":"8657","INCLINATION":"53.0575","BSTAR":"0.00012369000000","ECCENTRICITY":"0.00017510","RCS_SIZE":"LARGE","PERIAPSIS":"546.030","MEAN_MOTION_DDOT":"0.0000000000000","SITE":"AFETR","COUNTRY_CODE":"US","TLE_LINE2":"2 46696  53.0575  21.1612 0001751  61.7038 298.4127 15.06390629 86570","TIME_SYSTEM":"UTC","DECAY_DATE":null,"PERIOD":"95.593","NORAD_CAT_ID":"46696","TLE_LINE1":"1 46696U 20073AC  22130.87117790  .00001561  00000-0  12369-3 0  9998","SEMIMAJOR_AXIS":"6925.377","APOAPSIS":"548.455","ELEMENT_SET_NO":"999","MEAN_ANOMALY":"298.4127"},{"EPHEMERIS_TYPE":"0","REV_AT_EPOCH":"8627","LAUNCH_DATE":"2020-10-18","RA_OF_ASC_NODE":"41.7915","OBJECT_NAME":"STARLINK-1797","INCLINATION":"53.0565","BSTAR":"0.00053308000000","ECCENTRICITY":"0.00018050","FILE":"3439673","EPOCH":"2022-05-10T17:30:08.713728","MEAN_MOTION":"15.06360607","REF_FRAME":"TEME","GP_ID":"203227213","ARG_OF_PERICENTER":"79.5302","CENTER_NAME":"EARTH","MEAN_MOTION_DOT":"0.00007659","OBJECT_TYPE":"PAYLOAD","OBJECT_ID":"2020-073AE","MEAN_ELEMENT_THEORY":"SGP4","CLASSIFICATION_TYPE":"U","PERIOD":"95.595","NORAD_CAT_ID":"46698","SEMIMAJOR_AXIS":"6925.469","TLE_LINE1":"1 46698U 20073AE  22130.72926752  .00007659  00000-0  53308-3 0  9992","DECAY_DATE":null,"APOAPSIS":"548.584","ELEMENT_SET_NO":"999","MEAN_ANOMALY":"280.5890","RCS_SIZE":"LARGE","PERIAPSIS":"546.084","MEAN_MOTION_DDOT":"0.0000000000000","SITE":"AFETR","COUNTRY_CODE":"US","TIME_SYSTEM":"UTC","TLE_LINE2":"2 46698  53.0565  41.7915 0001805  79.5302 280.5890 15.06360607 86275"}];
